#dP2020  8 17  0  0  0.00000000      96 __u+U ITR00 FIT  IAC
## 2119  86400.00000000   900.00000000 59078 0.0000000000000
+  115   C06C07C08C09C10C11C12C13C14C16C19C20C21C22C23C24C25
+        C26C27C28C29C30C32C33C34C35C36C37C38C40C43C44C45C46
+        E01E02E03E04E05E07E08E09E11E12E13E14E15E18E19E21E24
+        E25E26E27E30E31E33E36G01G02G03G04G05G06G07G08G09G10
+        G11G12G13G15G16G17G18G19G20G21G22G23G24G25G26G27G28
+        G29G30G31G32J01J02J03R01R02R03R04R05R07R08R09R11R12
+        R13R14R15R16R17R18R19R20R21R22R23R24R26  0  0  0  0
++         8 10  9  8  8  8  8  8  9  9  8  5  8  6  6  9  6
++         7  6  6  7  7  8  6  8  7  8  6 14 10  9  9  8  8
++         7  6  5  7  6  7  7  7  7  8  7  5  6  7  8  6  7
++         6  7  6  6  7  6  7  6  6  6  6  6  6  7  6  6  6
++         6  6  7  5  6  6  6  5  7  6  6  5  6  6  6  9  6
++         5  7  5  7 10  8  9  8  8  6  6  6  6  7  6  7  7
++         8  7  6  8  6  7  7  7  8  8  7  7  6  0  0  0  0
%c M  cc GPS ccc cccc cccc cccc cccc ccccc ccccc ccccc ccccc
%c cc cc ccc ccc cccc cccc cccc cccc ccccc ccccc ccccc ccccc
%f  0.0000000  0.000000000  0.00000000000  0.000000000000000
%f  0.0000000  0.000000000  0.00000000000  0.000000000000000
%i    0    0    0    0      0      0      0      0         0
%i    0    0    0    0      0      0      0      0         0
/* INFORMATION & ANALYSIS CENTER (IAC)      ULTRA-RAPID DATA
/* S/V CLOCKS ARE ALIGNED TO GNSS TIME                      
/* G:C1WC2W R:C1PC2P E:C1XC5X C:C2IC6I J:C1CC2S             
/* PCV:IGS14_2118 OL/AL:FES2004  NONE     YN ORB:CoN CLK:CoN
*  2020 08 17  1 45  0.00000000
PC06 -16378.378570  20830.292172 -32453.909739    207.520782
PC07 -20930.384687  35962.976004   4880.732209     69.240465
PC08  -5012.747913  31990.731196  27280.209064   -452.449272
PC09   -666.004311  24673.040450 -33886.741357    748.668913
PC10 -10168.418848  37274.134935  16536.936746   -209.453785
PC11  26162.568277   5805.275098  -7835.571398   -560.367487
PC12  20650.272752  15909.520261  10037.557780    471.519017
PC13   4857.544946  38964.786795  15798.715386    599.656158
PC14  22974.794066  -4375.402910 -15244.723511    833.720118
PC16 -11524.398137  22114.278944 -33953.364315   -590.116677
PC19 -23985.362433  12203.262192   7367.149772    512.486030
PC20 -18812.814345  -3247.903284  20355.323753   -836.481190
PC21   2211.328233  17361.676535 -21715.484482   -666.286944
PC22 -15343.829871  20905.689567 -10264.072477   -765.217923
PC23   6121.210526 -24120.019684  12650.202406   -848.190531
PC24  15155.557950  14175.110126  18670.091536   -742.047903
PC25  14814.025124  -7982.177316  22260.728993   -723.999802
PC26   7435.466688  26470.150728   4865.727315    795.182944
PC27 -12289.481552 -18260.495749 -17181.034929    382.930487
PC28   7882.460089 -13841.238951 -22913.940340   -181.787893
PC29 -23273.942593   2259.765871  15218.958368    270.917842
PC30 -25503.138648 -11216.851739  -1739.582871    362.224076
PC32  -2324.594277 -17385.868976  21718.765603   -885.333598
PC33  23944.899896 -12301.032304  -7393.879784   -793.704849
PC34  25622.209634  10967.178600   1200.899840   -876.348195
PC35  -7669.162058  14052.351334  22853.534657   -698.689719
PC36 -15039.432775   7368.834264 -22286.961189 999999.999999
PC37  -6371.197888 -26837.272985  -4173.697488   -901.540551
PC38  -4741.254581  33858.386128  24755.033532     95.042937
PC40 -18308.618507  34831.485377  14891.875904     71.939885
PC43  23486.682638  -1957.636107 -14936.746434   -330.697377
PC44  12640.354280  17933.410372  17221.066228   -268.693694
PC45  -5941.047200  24153.418652 -12649.098917 999999.999999
PC46 -15237.181644 -13497.999920 -19059.474469 999999.999999
PE01 -13619.613261 -10293.067371 -24174.487501   -921.078264
PE02  13675.667409  10182.478814  24202.593563    154.936750
PE03  24369.580134   6177.461242 -15638.789747   -332.515350
PE04 -28628.803936   7304.793646  -1740.789486   -587.943057
PE05   5741.108892  16224.009555 -24080.313200   -354.043488
PE07  16088.479719 -16717.716299  18396.679386   -423.577124
PE08  28539.001331  -7635.876074   1994.379713   6134.065379
PE09 -15875.445680  16726.103873 -18541.314049   5961.421545
PE11  -4870.941106  17471.557322  23377.526343   4843.906411
PE12 -19811.638428   -203.662988  21990.301810   5652.320505
PE13   4977.700307 -17274.827012 -23515.676303    403.058372
PE14  22066.345906  10079.838407   9447.707394  -1122.640241
PE15  19659.172644    -29.876934 -22128.650452    856.044050
PE18 -14956.932628 -18240.352195 -19849.561531  -1227.836635
PE19 -22866.523135  -7489.316021  17244.183356     54.956755
PE21  -1492.190609 -25952.127535 -14159.309489   -616.191873
PE24 -12145.660451  26593.811216  -4676.342705   5293.635296
PE25   1406.808884  26010.317871  14064.917407   -515.223074
PE26 -12810.711207 -24488.586180 -10590.085970   2834.717965
PE27  11801.911878 -26799.629640   4338.524543    154.209173
PE30  18208.246239 -11299.898673  20415.990281   3660.083957
PE31 -18080.200738  11912.667485 -20166.514470   -473.663644
PE33 -22788.635880 -17232.052259   7741.063863   -463.663276
PE36  12625.857166  24369.759391  11086.563685    519.840931
PG01 -17596.019796  -7241.850994  18435.340746     34.148057
PG02  14148.345832  22479.381364   -349.773737   -503.239388
PG03 -18187.007647   4584.336087  18690.359272   -272.177660
PG04 -26466.913127   -255.967717  -2420.559221   -125.343768
PG05   7749.464416  15314.589824 -20369.358510    -18.992217
PG06   4230.718467  23839.307033  10922.111474   -316.334775
PG07 -11112.120863  11129.385187 -21016.857728   -351.848952
PG08 -24382.623486  -6551.834587  -8651.697673    -44.713843
PG09 -21491.732045   8710.288017 -13015.869666   -271.534453
PG10  10746.115691 -23621.631958   5088.102539   -429.650915
PG11 -23226.558997 -10577.810303   6201.832592   -190.643511
PG12  17940.840339  -2590.012923  19125.423488     79.608458
PG13  18051.654432  13219.897767 -14514.071343     36.504400
PG15  25168.327487   4482.142139  -8215.003116   -210.108542
PG16  -8333.998544 -13140.703156 -21675.992508   -196.679219
PG17  -5808.283947  14198.088020  22103.394879    312.155742
PG18  10516.568263 -11986.858601 -21248.229651    271.399680
PG19   2577.311280  14909.532038  21540.041080   -117.466044
PG20  15332.290371 -20222.203894  -7491.295904    527.022147
PG21 -10167.876535 -23936.297814  -5443.121428     36.513563
PG22 -15870.130447  -3563.038548  21183.867401   -763.468323
PG23  16100.757931 -20626.221312  -4567.344098 999999.999999
PG24  19218.571672   8819.815499  16088.091206    -17.242214
PG25  18806.903470 -13761.167924  12262.324032     36.383605
PG26   1515.851832 -22481.997949 -13910.920627    262.615436
PG27 -16251.727236 -12337.017650 -17329.273975   -372.944868
PG28 -11435.001531  23047.245450   7480.010516    688.768718
PG29  24152.249302  -4195.172205 -10324.929527   -174.367012
PG30  -3640.787371  20333.645688 -16521.269187   -283.692919
PG31  -4878.710103 -24265.833169   8936.454895    -62.663850
PG32   4179.768431 -15049.880285  21554.462694    333.655839
PJ01 -35128.081114  22287.839716  -1980.008609   -188.209714
PJ02 -22407.836580  30013.024314 -14798.868020     -2.449929
PJ03 -28106.789403  22921.029043  26535.290015     -0.502652
PR01  18169.021831 -15019.341480   9765.803587     66.153939
PR02   -872.313732 -11579.826555  22744.214462    441.330322
PR03 -16984.470682  -1516.475116  19030.727856     20.459238
PR04 -23265.484741   9388.590144   4643.724511     60.074513
PR05 -16585.651455  14899.496555 -12403.232299     55.953280
PR07  17342.522072   1127.770894 -18619.089975    -39.380356
PR08  23261.355539  -9401.382949  -4507.257109    -54.063793
PR09   4613.421230  22290.321047  11455.571554    149.365433
PR11  10833.653699  -8708.646913  21421.956099    -34.325695
PR12   5984.812132 -22600.545148  10217.572485    156.067068
PR13  -2558.792226 -24285.324511  -7396.029810    -42.579473
PR14  -9398.028195 -11508.847049 -20720.986684     54.525648
PR15 -10792.980141   7683.186274 -21769.719885    106.969878
PR16  -5289.531906  23143.785546  -9502.454991     -5.419963
PR17 -21493.488450 -13671.048153    766.273832    350.276359
PR18 -19188.734768  -3835.992872  16398.049612     46.080552
PR19  -7240.336668   7582.743548  23247.084496   -107.105967
PR20  10990.175709  16417.623858  16115.076270   -419.468689
PR21  21698.045428  13325.969375  -1801.157273   -145.607340
PR22  18455.873775   2998.810341 -17324.773793    -68.599530
PR23    364.314956 -11909.460078 -22566.530225    325.785373
PR24 -11565.277507 -16697.196179 -15407.156693      9.988561
PR26   6814.293944  15018.383078  19478.626593   -362.189207
EOF
